{"type": "FeatureCollection", "_origen": "BA Data (oficial, simplificado RDP)", "_fuente_url": "https://cdn.buenosaires.gob.ar/datosabiertos/datasets/ministerio-de-educacion/comunas/comunas.geojson", "features": [{"type": "Feature", "properties": {"comuna": 1, "nombre": "Comuna 1", "barrios": "Constitucion, Monserrat, Retiro, Puerto Madero, San Nicolas, San Telmo"}, "geometry": {"type": "MultiPolygon", "coordinates": [[[[-58.368545, -34.57365], [-58.36803, -34.573708], [-58.36749, -34.573907], [-58.358362, -34.579112], [-58.358111, -34.57932], [-58.357978, -34.579651], [-58.355404, -34.591758], [-58.355228, -34.592191], [-58.354793, -34.592711], [-58.355256, -34.592269], [-58.355505, -34.591658], [-58.358073, -34.579542], [-58.358162, -34.579369], [-58.358564, -34.579066], [-58.367648, -34.573894], [-58.36811, -34.573754], [-58.368638, -34.573707], [-58.369106, -34.573786], [-58.369758, -34.574038], [-58.369241, -34.573761], [-58.368545, -34.57365]]], [[[-58.374277, -34.578704], [-58.367933, -34.57821], [-58.36532, -34.579704], [-58.36525, -34.58015], [-58.370595, -34.580585], [-58.370562, -34.58083], [-58.368974, -34.581728], [-58.361624, -34.581147], [-58.361417, -34.582963], [-58.366108, -34.583334], [-58.366145, -34.583566], [-58.364945, -34.584499], [-58.359902, -34.584145], [-58.359747, -34.585931], [-58.363661, -34.586266], [-58.363502, -34.58749], [-58.359589, -34.58719], [-58.359461, -34.588079], [-58.359644, -34.588115], [-58.359723, -34.588296], [-58.360837, -34.588552], [-58.360745, -34.588935], [-58.360893, -34.588563], [-58.367996, -34.590008], [-58.367911, -34.590429], [-58.36749, -34.590651], [-58.366893, -34.590714], [-58.366524, -34.590971], [-58.364371, -34.594264], [-58.36444, -34.594387], [-58.364641, -34.594489], [-58.364832, -34.594456], [-58.365902, -34.592829], [-58.366158, -34.592854], [-58.367088, -34.591398], [-58.367243, -34.591394], [-58.367279, -34.591546], [-58.366388, -34.592985], [-58.366929, -34.593198], [-58.367656, -34.591978], [-58.367874, -34.591953], [-58.367931, -34.592086], [-58.367153, -34.593302], [-58.369082, -34.594156], [-58.367912, -34.597473], [-58.366497, -34.597413], [-58.366376, -34.598221], [-58.366093, -34.598203], [-58.366159, -34.597383], [-58.363834, -34.597197], [-58.364409, -34.595504], [-58.364344, -34.595377], [-58.364105, -34.595311], [-58.36387, -34.595415], [-58.363421, -34.596659], [-58.362482, -34.596497], [-58.360387, -34.595514], [-58.360322, -34.595431], [-58.360327, -34.595086], [-58.36006, -34.594993], [-58.35886, -34.594915], [-58.358593, -34.594964], [-58.354148, -34.594664], [-58.350964, -34.595145], [-58.350953, -34.595196], [-58.354116, -34.594701], [-58.356684, -34.594858], [-58.356768, -34.59493], [-58.355441, -34.595311], [-58.354914, -34.595792], [-58.353441, -34.596691], [-58.353051, -34.597039], [-58.352814, -34.597483], [-58.35241, -34.5979], [-58.352107, -34.598028], [-58.351157, -34.598914], [-58.350496, -34.599291], [-58.349736, -34.600108], [-58.34936, -34.600306], [-58.348778, -34.600835], [-58.348003, -34.601283], [-58.347362, -34.601816], [-58.347032, -34.602227], [-58.346782, -34.602358], [-58.346742, -34.602716], [-58.346646, -34.602853], [-58.346717, -34.603057], [-58.346583, -34.603438], [-58.34662, -34.603588], [-58.34648, -34.604276], [-58.346334, -34.604728], [-58.346082, -34.604992], [-58.346169, -34.605415], [-58.346063, -34.606255], [-58.345744, -34.606882], [-58.344929, -34.607454], [-58.344, -34.607939], [-58.341721, -34.609748], [-58.34147, -34.609869], [-58.340866, -34.610663], [-58.339982, -34.61387], [-58.33985, -34.615041], [-58.339876, -34.616094], [-58.339985, -34.616275], [-58.340717, -34.616893], [-58.341195, -34.616985], [-58.342294, -34.616961], [-58.342807, -34.617028], [-58.345026, -34.617541], [-58.345581, -34.617405], [-58.347297, -34.617303], [-58.347923, -34.617005], [-58.348396, -34.616915], [-58.348857, -34.616939], [-58.349071, -34.616827], [-58.349235, -34.616959], [-58.35027, -34.617229], [-58.350273, -34.617381], [-58.350586, -34.617702], [-58.350607, -34.617988], [-58.350815, -34.618171], [-58.350358, -34.618134], [-58.350151, -34.618247], [-58.349926, -34.618161], [-58.349799, -34.618215], [-58.349866, -34.618361], [-58.350106, -34.618479], [-58.350121, -34.618567], [-58.349977, -34.61864], [-58.349973, -34.618716], [-58.350253, -34.618777], [-58.350535, -34.618526], [-58.350727, -34.61855], [-58.350375, -34.618934], [-58.350573, -34.619022], [-58.350682, -34.619169], [-58.351223, -34.619223], [-58.35127, -34.619351], [-58.351468, -34.619358], [-58.351922, -34.619619], [-58.35257, -34.619537], [-58.352697, -34.61977], [-58.352935, -34.61975], [-58.35309, -34.619536], [-58.353522, -34.619404], [-58.354078, -34.6197], [-58.354254, -34.619463], [-58.355144, -34.619549], [-58.356015, -34.617605], [-58.3632, -34.625134], [-58.367975, -34.625194], [-58.367949, -34.627141], [-58.368095, -34.627188], [-58.369449, -34.628322], [-58.370662, -34.629492], [-58.370968, -34.626646], [-58.374564, -34.626798], [-58.377723, -34.628471], [-58.379048, -34.629332], [-58.378625, -34.630498], [-58.379514, -34.63221], [-58.380096, -34.632631], [-58.380147, -34.63303], [-58.381254, -34.633069], [-58.381336, -34.630844], [-58.383395, -34.632219], [-58.38856, -34.633711], [-58.390356, -34.634123], [-58.391173, -34.627252], [-58.391435, -34.623987], [-58.3917, -34.618158], [-58.391664, -34.615511], [-58.39181, -34.611279], [-58.39239, -34.603155], [-58.392934, -34.599636], [-58.386867, -34.599292], [-58.387274, -34.594746], [-58.38757, -34.59283], [-58.387954, -34.591648], [-58.386921, -34.590775], [-58.38369, -34.5875], [-58.384503, -34.58696], [-58.385329, -34.585383], [-58.386967, -34.583551], [-58.388396, -34.582484], [-58.391174, -34.581007], [-58.391648, -34.580831], [-58.389868, -34.578201], [-58.386584, -34.578114], [-58.38529, -34.578246], [-58.384102, -34.578184], [-58.383575, -34.578235], [-58.382861, -34.578448], [-58.37984, -34.580162], [-58.376164, -34.57995], [-58.375126, -34.58052], [-58.373976, -34.579102], [-58.376715, -34.577545], [-58.376045, -34.577484], [-58.376031, -34.577722], [-58.374277, -34.578704]]]]}}, {"type": "Feature", "properties": {"comuna": 2, "nombre": "Comuna 2", "barrios": "Recoleta"}, "geometry": {"type": "Polygon", "coordinates": [[[-58.380008, -34.570023], [-58.380029, -34.570367], [-58.379065, -34.570298], [-58.378555, -34.570444], [-58.375881, -34.57195], [-58.374148, -34.57307], [-58.371105, -34.574835], [-58.371174, -34.574897], [-58.374219, -34.573126], [-58.376017, -34.571975], [-58.378601, -34.570517], [-58.378993, -34.570386], [-58.38036, -34.570473], [-58.380329, -34.570809], [-58.380506, -34.571038], [-58.378308, -34.572304], [-58.378291, -34.572748], [-58.383551, -34.573185], [-58.383585, -34.573412], [-58.381816, -34.57441], [-58.375443, -34.573925], [-58.37076, -34.5766], [-58.3707, -34.577024], [-58.376715, -34.577545], [-58.373976, -34.579102], [-58.375126, -34.58052], [-58.376164, -34.57995], [-58.37984, -34.580162], [-58.382861, -34.578448], [-58.383575, -34.578235], [-58.384102, -34.578184], [-58.38529, -34.578246], [-58.386584, -34.578114], [-58.389868, -34.578201], [-58.391648, -34.580831], [-58.391174, -34.581007], [-58.388396, -34.582484], [-58.386967, -34.583551], [-58.385329, -34.585383], [-58.384503, -34.58696], [-58.38369, -34.5875], [-58.386921, -34.590775], [-58.387954, -34.591648], [-58.38757, -34.59283], [-58.387274, -34.594746], [-58.386867, -34.599292], [-58.392934, -34.599636], [-58.398726, -34.59976], [-58.402011, -34.599369], [-58.40451, -34.598035], [-58.410297, -34.598092], [-58.416003, -34.597854], [-58.414396, -34.594054], [-58.410084, -34.589057], [-58.406175, -34.583459], [-58.401946, -34.583426], [-58.40113, -34.583942], [-58.400547, -34.584472], [-58.399278, -34.58273], [-58.399365, -34.582715], [-58.398113, -34.580702], [-58.396563, -34.578507], [-58.398585, -34.577172], [-58.399944, -34.57649], [-58.401148, -34.575737], [-58.401655, -34.575317], [-58.40265, -34.57414], [-58.402031, -34.573517], [-58.399719, -34.570807], [-58.399633, -34.570403], [-58.399701, -34.570018], [-58.40013, -34.569349], [-58.399341, -34.569871], [-58.395209, -34.572191], [-58.394824, -34.572309], [-58.392843, -34.572233], [-58.392988, -34.571976], [-58.389503, -34.574025], [-58.385314, -34.576304], [-58.383398, -34.576165], [-58.382885, -34.5756], [-58.382852, -34.575415], [-58.391264, -34.570605], [-58.391254, -34.570402], [-58.391048, -34.570071], [-58.390681, -34.56975], [-58.390494, -34.569423], [-58.390319, -34.569336], [-58.390231, -34.56938], [-58.384285, -34.568894], [-58.383946, -34.568753], [-58.383689, -34.568506], [-58.383118, -34.568377], [-58.381467, -34.568422], [-58.381052, -34.568528], [-58.380747, -34.569392], [-58.380711, -34.570112], [-58.380357, -34.570098], [-58.380399, -34.568604], [-58.3803, -34.568388], [-58.380102, -34.568269], [-58.380042, -34.568454], [-58.380159, -34.568526], [-58.38027, -34.568948], [-58.380233, -34.56984], [-58.380034, -34.569929], [-58.380008, -34.570023]]]}}, {"type": "Feature", "properties": {"comuna": 3, "nombre": "Comuna 3", "barrios": "San Cristobal, Balvanera"}, "geometry": {"type": "Polygon", "coordinates": [[[-58.411921, -34.598003], [-58.410297, -34.598092], [-58.40451, -34.598035], [-58.402011, -34.599369], [-58.398726, -34.59976], [-58.392934, -34.599636], [-58.39239, -34.603155], [-58.39181, -34.611279], [-58.391664, -34.615511], [-58.3917, -34.618158], [-58.391614, -34.620538], [-58.391173, -34.627252], [-58.392163, -34.627262], [-58.398597, -34.628405], [-58.408367, -34.629515], [-58.411782, -34.630355], [-58.412068, -34.625137], [-58.412336, -34.623032], [-58.412044, -34.622974], [-58.412359, -34.621867], [-58.412439, -34.621882], [-58.412638, -34.619582], [-58.412872, -34.614115], [-58.413316, -34.612854], [-58.414469, -34.610736], [-58.414662, -34.608189], [-58.414101, -34.607906], [-58.413911, -34.607246], [-58.412302, -34.600352], [-58.411921, -34.598003]]]}}, {"type": "Feature", "properties": {"comuna": 4, "nombre": "Comuna 4", "barrios": "Barracas, La Boca, Parque Patricios, Nueva Pompeya"}, "geometry": {"type": "Polygon", "coordinates": [[[-58.355205, -34.619429], [-58.355144, -34.619549], [-58.354254, -34.619463], [-58.354078, -34.6197], [-58.353522, -34.619404], [-58.35309, -34.619536], [-58.352935, -34.61975], [-58.352697, -34.61977], [-58.35257, -34.619537], [-58.351922, -34.619619], [-58.351468, -34.619358], [-58.35123, -34.619351], [-58.350872, -34.619469], [-58.350879, -34.619613], [-58.350776, -34.61967], [-58.350687, -34.619553], [-58.350164, -34.619735], [-58.349577, -34.619789], [-58.349072, -34.619642], [-58.348312, -34.619044], [-58.347843, -34.61895], [-58.347294, -34.618934], [-58.346568, -34.619101], [-58.345974, -34.618853], [-58.345224, -34.618802], [-58.344612, -34.618985], [-58.344547, -34.619053], [-58.34468, -34.619626], [-58.345197, -34.619831], [-58.345451, -34.619871], [-58.346242, -34.619345], [-58.346338, -34.619204], [-58.346566, -34.619276], [-58.347156, -34.619988], [-58.347104, -34.620546], [-58.346971, -34.620987], [-58.346458, -34.621618], [-58.346516, -34.621989], [-58.346066, -34.622678], [-58.346042, -34.622901], [-58.345937, -34.622954], [-58.345981, -34.622306], [-58.345872, -34.622274], [-58.346068, -34.622266], [-58.346081, -34.622183], [-58.345989, -34.622113], [-58.346097, -34.622007], [-58.345811, -34.621876], [-58.345755, -34.622109], [-58.345716, -34.62183], [-58.345484, -34.621521], [-58.34504, -34.621332], [-58.344709, -34.62134], [-58.344341, -34.621467], [-58.344069, -34.621754], [-58.344088, -34.621524], [-58.344224, -34.621402], [-58.34427, -34.621212], [-58.344223, -34.620841], [-58.344349, -34.62052], [-58.344301, -34.620176], [-58.344052, -34.619488], [-58.343852, -34.61923], [-58.343479, -34.61897], [-58.34341, -34.618709], [-58.342659, -34.618536], [-58.341562, -34.618478], [-58.340393, -34.618684], [-58.339835, -34.618484], [-58.339176, -34.618497], [-58.338592, -34.618638], [-58.338069, -34.61896], [-58.337518, -34.620008], [-58.337417, -34.620915], [-58.337008, -34.621487], [-58.336927, -34.621813], [-58.336978, -34.622194], [-58.337216, -34.622524], [-58.337513, -34.622709], [-58.337961, -34.622807], [-58.339524, -34.622583], [-58.340344, -34.622659], [-58.341077, -34.622618], [-58.341903, -34.622822], [-58.342015, -34.622711], [-58.34192, -34.622351], [-58.342135, -34.622241], [-58.342649, -34.622422], [-58.343036, -34.622709], [-58.342376, -34.623372], [-58.342201, -34.623286], [-58.34215, -34.623131], [-58.341889, -34.623033], [-58.340687, -34.623023], [-58.340052, -34.623236], [-58.338437, -34.624565], [-58.338212, -34.624618], [-58.33824, -34.624697], [-58.337027, -34.624884], [-58.335167, -34.626423], [-58.335158, -34.627093], [-58.336261, -34.628022], [-58.336203, -34.628177], [-58.336382, -34.628213], [-58.336438, -34.628063], [-58.336984, -34.628216], [-58.336925, -34.628372], [-58.338163, -34.62871], [-58.338223, -34.628555], [-58.338795, -34.628718], [-58.338733, -34.628876], [-58.338883, -34.628918], [-58.33895, -34.628753], [-58.339283, -34.628891], [-58.339306, -34.628823], [-58.339124, -34.628787], [-58.339229, -34.628653], [-58.33945, -34.62861], [-58.339753, -34.627828], [-58.340267, -34.627968], [-58.340555, -34.627732], [-58.340667, -34.627828], [-58.340784, -34.627715], [-58.340675, -34.627622], [-58.341073, -34.627297], [-58.341187, -34.627388], [-58.341306, -34.62728], [-58.341202, -34.627195], [-58.341601, -34.626864], [-58.341697, -34.626941], [-58.34177, -34.626907], [-58.341734, -34.626765], [-58.342128, -34.626431], [-58.34222, -34.626506], [-58.342356, -34.626413], [-58.342257, -34.626324], [-58.34245, -34.626168], [-58.342739, -34.626197], [-58.342744, -34.626312], [-58.342904, -34.626308], [-58.342916, -34.62622], [-58.343332, -34.626263], [-58.343326, -34.626345], [-58.343445, -34.626395], [-58.3435, -34.626286], [-58.344276, -34.626373], [-58.344384, -34.626449], [-58.343825, -34.626896], [-58.343715, -34.626811], [-58.34358, -34.626925], [-58.343678, -34.62701], [-58.34333, -34.627306], [-58.343215, -34.627213], [-58.343086, -34.62731], [-58.343208, -34.627414], [-58.342825, -34.627731], [-58.342723, -34.627646], [-58.342598, -34.627745], [-58.342698, -34.627832], [-58.342322, -34.628137], [-58.342208, -34.628039], [-58.342089, -34.628145], [-58.3422, -34.628241], [-58.341818, -34.628556], [-58.341649, -34.628507], [-58.341589, -34.628576], [-58.34169, -34.62866], [-58.341405, -34.628892], [-58.341562, -34.629078], [-58.34201, -34.629274], [-58.342037, -34.629201], [-58.342384, -34.629298], [-58.342357, -34.6294], [-58.342513, -34.629454], [-58.342549, -34.629349], [-58.342851, -34.629429], [-58.343188, -34.629138], [-58.343325, -34.62922], [-58.343408, -34.629117], [-58.343319, -34.629041], [-58.343693, -34.628743], [-58.343782, -34.628818], [-58.343915, -34.628712], [-58.343823, -34.628633], [-58.344205, -34.62832], [-58.344317, -34.628416], [-58.344406, -34.628347], [-58.344313, -34.628214], [-58.344581, -34.627998], [-58.345377, -34.628664], [-58.347054, -34.627281], [-58.348763, -34.628684], [-58.348773, -34.628752], [-58.348431, -34.628786], [-58.34844, -34.628948], [-58.348778, -34.628918], [-58.348789, -34.629082], [-58.348689, -34.629346], [-58.348484, -34.62939], [-58.348444, -34.629858], [-58.347966, -34.629936], [-58.34791, -34.630129], [-58.34827, -34.630086], [-58.348314, -34.630272], [-58.348139, -34.630417], [-58.347931, -34.631152], [-58.347847, -34.631171], [-58.347759, -34.630906], [-58.347692, -34.630924], [-58.347765, -34.631187], [-58.347574, -34.631392], [-58.346854, -34.631506], [-58.346739, -34.631423], [-58.346151, -34.631537], [-58.346102, -34.631658], [-58.347587, -34.63207], [-58.347821, -34.632319], [-58.349073, -34.632555], [-58.350191, -34.632298], [-58.351251, -34.631252], [-58.352075, -34.629233], [-58.352386, -34.629009], [-58.352993, -34.62916], [-58.353972, -34.628088], [-58.360299, -34.623943], [-58.360349, -34.623997], [-58.360507, -34.623896], [-58.360842, -34.624251], [-58.361772, -34.623638], [-58.361917, -34.62379], [-58.361023, -34.624392], [-58.361266, -34.624683], [-58.355846, -34.628186], [-58.354693, -34.629227], [-58.354068, -34.630111], [-58.353791, -34.63067], [-58.352765, -34.633561], [-58.353251, -34.635109], [-58.353511, -34.63571], [-58.354142, -34.636516], [-58.356048, -34.637536], [-58.356968, -34.638568], [-58.358031, -34.6392], [-58.360358, -34.639187], [-58.361126, -34.639394], [-58.361443, -34.639865], [-58.360907, -34.640721], [-58.358485, -34.641553], [-58.35813, -34.641867], [-58.357479, -34.643459], [-58.357327, -34.644042], [-58.357602, -34.644978], [-58.358751, -34.645379], [-58.359818, -34.645969], [-58.360888, -34.646869], [-58.361805, -34.647825], [-58.362398, -34.648144], [-58.363922, -34.648095], [-58.364337, -34.648222], [-58.364975, -34.648787], [-58.368641, -34.650668], [-58.369661, -34.651332], [-58.370016, -34.652101], [-58.369675, -34.65323], [-58.369791, -34.653577], [-58.370317, -34.653979], [-58.372547, -34.654981], [-58.37363, -34.656394], [-58.374123, -34.656763], [-58.375106, -34.656943], [-58.376376, -34.65682], [-58.376621, -34.656938], [-58.377381, -34.65695], [-58.377636, -34.657119], [-58.379253, -34.657451], [-58.381523, -34.657536], [-58.382047, -34.657487], [-58.382415, -34.65755], [-58.382818, -34.657504], [-58.383034, -34.657583], [-58.383413, -34.657521], [-58.383549, -34.657598], [-58.384126, -34.657608], [-58.385178, -34.657845], [-58.385606, -34.658057], [-58.386445, -34.658704], [-58.386909, -34.659404], [-58.387719, -34.660159], [-58.387965, -34.660225], [-58.388018, -34.660327], [-58.388874, -34.660526], [-58.389044, -34.6605], [-58.389189, -34.660631], [-58.389481, -34.66064], [-58.390227, -34.660853], [-58.390627, -34.661067], [-58.390742, -34.661018], [-58.391065, -34.661452], [-58.39159, -34.661902], [-58.392338, -34.662157], [-58.393183, -34.662292], [-58.394823, -34.662116], [-58.395574, -34.661856], [-58.395978, -34.661844], [-58.396422, -34.662024], [-58.397287, -34.661959], [-58.397599, -34.661755], [-58.397774, -34.661344], [-58.397925, -34.661221], [-58.399195, -34.660895], [-58.399809, -34.660905], [-58.399999, -34.660754], [-58.400727, -34.660497], [-58.4011, -34.659948], [-58.401876, -34.659603], [-58.402534, -34.659421], [-58.403082, -34.659345], [-58.404003, -34.65942], [-58.405428, -34.659672], [-58.406404, -34.660002], [-58.407231, -34.659999], [-58.407648, -34.659824], [-58.408306, -34.659845], [-58.40898, -34.659601], [-58.409631, -34.659259], [-58.410131, -34.658885], [-58.410462, -34.65887], [-58.411191, -34.658562], [-58.411744, -34.658546], [-58.412408, -34.658379], [-58.413515, -34.658438], [-58.414557, -34.658606], [-58.415956, -34.659064], [-58.416398, -34.659125], [-58.41689, -34.659373], [-58.417707, -34.659597], [-58.417901, -34.659502], [-58.4181, -34.65968], [-58.420026, -34.660165], [-58.421848, -34.660855], [-58.424043, -34.662046], [-58.426747, -34.658672], [-58.434435, -34.653111], [-58.430431, -34.649873], [-58.434504, -34.646674], [-58.434924, -34.646235], [-58.432619, -34.645214], [-58.432109, -34.645162], [-58.432346, -34.64174], [-58.430925, -34.641443], [-58.411263, -34.638098], [-58.410514, -34.635708], [-58.410491, -34.635236], [-58.410883, -34.634507], [-58.411523, -34.632855], [-58.411782, -34.630355], [-58.408367, -34.629515], [-58.398597, -34.628405], [-58.392163, -34.627262], [-58.391173, -34.627252], [-58.390356, -34.634123], [-58.38856, -34.633711], [-58.383395, -34.632219], [-58.381336, -34.630844], [-58.381254, -34.633069], [-58.380147, -34.63303], [-58.380096, -34.632631], [-58.379514, -34.63221], [-58.378625, -34.630498], [-58.379048, -34.629332], [-58.377723, -34.628471], [-58.375577, -34.6273], [-58.374564, -34.626798], [-58.370968, -34.626646], [-58.370662, -34.629492], [-58.369449, -34.628322], [-58.368095, -34.627188], [-58.367949, -34.627141], [-58.367975, -34.625194], [-58.3632, -34.625134], [-58.356015, -34.617605], [-58.355205, -34.619429]]]}}, {"type": "Feature", "properties": {"comuna": 5, "nombre": "Comuna 5", "barrios": "Almagro, Boedo"}, "geometry": {"type": "Polygon", "coordinates": [[[-58.412872, -34.614115], [-58.412638, -34.619582], [-58.412439, -34.621882], [-58.412359, -34.621867], [-58.412044, -34.622974], [-58.412336, -34.623032], [-58.412068, -34.625137], [-58.411782, -34.630355], [-58.411523, -34.632855], [-58.410883, -34.634507], [-58.410491, -34.635236], [-58.410514, -34.635708], [-58.411263, -34.638098], [-58.423494, -34.640199], [-58.425804, -34.631283], [-58.427239, -34.624851], [-58.429254, -34.615105], [-58.43003, -34.615448], [-58.430671, -34.605941], [-58.433336, -34.602673], [-58.432242, -34.602133], [-58.430277, -34.599882], [-58.429431, -34.599126], [-58.42855, -34.598672], [-58.426787, -34.597944], [-58.423755, -34.597827], [-58.422841, -34.597712], [-58.411921, -34.598003], [-58.412302, -34.600352], [-58.413911, -34.607246], [-58.414101, -34.607906], [-58.414662, -34.608189], [-58.414469, -34.610736], [-58.413316, -34.612854], [-58.412872, -34.614115]]]}}, {"type": "Feature", "properties": {"comuna": 6, "nombre": "Comuna 6", "barrios": "Caballito"}, "geometry": {"type": "Polygon", "coordinates": [[[-58.430608, -34.607046], [-58.43003, -34.615448], [-58.429254, -34.615105], [-58.426758, -34.626997], [-58.451577, -34.630638], [-58.454575, -34.624479], [-58.459033, -34.614734], [-58.462705, -34.607372], [-58.458474, -34.604491], [-58.446248, -34.607615], [-58.445133, -34.607175], [-58.439203, -34.605582], [-58.433336, -34.602673], [-58.430671, -34.605941], [-58.430608, -34.607046]]]}}, {"type": "Feature", "properties": {"comuna": 7, "nombre": "Comuna 7", "barrios": "Flores, Parque Chacabuco"}, "geometry": {"type": "Polygon", "coordinates": [[[-58.451996, -34.629744], [-58.451577, -34.630638], [-58.426758, -34.626997], [-58.425804, -34.631283], [-58.423494, -34.640199], [-58.432346, -34.64174], [-58.432109, -34.645162], [-58.432619, -34.645214], [-58.434924, -34.646235], [-58.434504, -34.646674], [-58.430431, -34.649873], [-58.436022, -34.654369], [-58.438007, -34.655802], [-58.442952, -34.651896], [-58.443206, -34.651573], [-58.443325, -34.651188], [-58.444407, -34.651064], [-58.444621, -34.650946], [-58.448829, -34.651174], [-58.451975, -34.651077], [-58.454637, -34.650822], [-58.454861, -34.651989], [-58.455062, -34.652298], [-58.460402, -34.656805], [-58.463939, -34.653956], [-58.465427, -34.652895], [-58.467033, -34.651467], [-58.463885, -34.647553], [-58.463357, -34.646826], [-58.462999, -34.646169], [-58.465086, -34.644711], [-58.469242, -34.641396], [-58.473484, -34.631791], [-58.477807, -34.622384], [-58.468635, -34.617561], [-58.464539, -34.615787], [-58.459449, -34.613885], [-58.454575, -34.624479], [-58.451996, -34.629744]]]}}, {"type": "Feature", "properties": {"comuna": 8, "nombre": "Comuna 8", "barrios": "Villa Lugano, Villa Riachuelo, Villa Soldati"}, "geometry": {"type": "Polygon", "coordinates": [[[-58.449133, -34.651164], [-58.444621, -34.650946], [-58.444407, -34.651064], [-58.443325, -34.651188], [-58.443206, -34.651573], [-58.442952, -34.651896], [-58.438007, -34.655802], [-58.434435, -34.653111], [-58.426747, -34.658672], [-58.424043, -34.662046], [-58.424433, -34.662389], [-58.425773, -34.663275], [-58.427397, -34.664877], [-58.428182, -34.665892], [-58.428267, -34.665883], [-58.428758, -34.66646], [-58.429128, -34.667032], [-58.430116, -34.668076], [-58.432326, -34.670669], [-58.451244, -34.693179], [-58.458925, -34.702204], [-58.461715, -34.70529], [-58.502524, -34.674507], [-58.499126, -34.672634], [-58.497038, -34.671179], [-58.495872, -34.670194], [-58.493607, -34.667961], [-58.49176, -34.666006], [-58.488951, -34.663347], [-58.485944, -34.662446], [-58.478817, -34.657843], [-58.472515, -34.662771], [-58.47057, -34.658425], [-58.469556, -34.659104], [-58.467655, -34.657514], [-58.46443, -34.660048], [-58.46158, -34.657877], [-58.459201, -34.655766], [-58.455062, -34.652298], [-58.454861, -34.651989], [-58.454637, -34.650822], [-58.451975, -34.651077], [-58.449133, -34.651164]]]}}, {"type": "Feature", "properties": {"comuna": 9, "nombre": "Comuna 9", "barrios": "Parque Avellaneda, Mataderos, Liniers"}, "geometry": {"type": "Polygon", "coordinates": [[[-58.519252, -34.633009], [-58.517087, -34.633013], [-58.514862, -34.633202], [-58.513321, -34.633664], [-58.508829, -34.635552], [-58.50765, -34.63589], [-58.50696, -34.63589], [-58.506818, -34.635811], [-58.505671, -34.636717], [-58.510508, -34.63737], [-58.50982, -34.640007], [-58.502298, -34.645817], [-58.497136, -34.643408], [-58.495301, -34.644847], [-58.478545, -34.636993], [-58.476072, -34.638934], [-58.473492, -34.637307], [-58.471303, -34.636654], [-58.469242, -34.641396], [-58.465086, -34.644711], [-58.462999, -34.646169], [-58.463357, -34.646826], [-58.463885, -34.647553], [-58.467033, -34.651467], [-58.465427, -34.652895], [-58.463939, -34.653956], [-58.460402, -34.656805], [-58.46158, -34.657877], [-58.46443, -34.660048], [-58.467655, -34.657514], [-58.469556, -34.659104], [-58.47057, -34.658425], [-58.472515, -34.662771], [-58.478817, -34.657843], [-58.485944, -34.662446], [-58.488951, -34.663347], [-58.49176, -34.666006], [-58.493607, -34.667961], [-58.495872, -34.670194], [-58.497038, -34.671179], [-58.499126, -34.672634], [-58.502524, -34.674507], [-58.529206, -34.654298], [-58.530356, -34.634795], [-58.528204, -34.634842], [-58.524298, -34.63447], [-58.522335, -34.634012], [-58.520685, -34.63382], [-58.520812, -34.633399], [-58.520745, -34.633219], [-58.520239, -34.632796], [-58.520066, -34.632945], [-58.519252, -34.633009]]]}}, {"type": "Feature", "properties": {"comuna": 10, "nombre": "Comuna 10", "barrios": "Floresta, Monte Castro, Velez Sarsfield, Versalles, Villa Luro, Villa Real"}, "geometry": {"type": "Polygon", "coordinates": [[[-58.488337, -34.62016], [-58.482742, -34.624629], [-58.479376, -34.623192], [-58.477807, -34.622384], [-58.471303, -34.636654], [-58.473492, -34.637307], [-58.476072, -34.638934], [-58.478545, -34.636993], [-58.495301, -34.644847], [-58.497136, -34.643408], [-58.502298, -34.645817], [-58.50982, -34.640007], [-58.510508, -34.63737], [-58.505671, -34.636717], [-58.506818, -34.635811], [-58.50696, -34.63589], [-58.50765, -34.63589], [-58.508829, -34.635552], [-58.513321, -34.633664], [-58.514862, -34.633202], [-58.517087, -34.633013], [-58.519744, -34.632983], [-58.520172, -34.632911], [-58.520239, -34.632796], [-58.520745, -34.633219], [-58.520812, -34.633399], [-58.520685, -34.63382], [-58.522335, -34.634012], [-58.524298, -34.63447], [-58.528204, -34.634842], [-58.530356, -34.634795], [-58.531516, -34.615493], [-58.529466, -34.610895], [-58.525612, -34.613662], [-58.525112, -34.614001], [-58.525058, -34.613962], [-58.516948, -34.620215], [-58.513045, -34.616731], [-58.500191, -34.609125], [-58.495572, -34.614391], [-58.488337, -34.62016]]]}}, {"type": "Feature", "properties": {"comuna": 11, "nombre": "Comuna 11", "barrios": "Villa Del Parque, Villa Devoto, Villa Gral. Mitre, Villa Santa Rita"}, "geometry": {"type": "Polygon", "coordinates": [[[-58.498384, -34.596368], [-58.497174, -34.596817], [-58.483456, -34.597758], [-58.482843, -34.597943], [-58.478831, -34.599671], [-58.476392, -34.600199], [-58.477499, -34.600825], [-58.476381, -34.602365], [-58.474017, -34.605311], [-58.47161, -34.603821], [-58.468912, -34.60186], [-58.458474, -34.604491], [-58.462705, -34.607372], [-58.459449, -34.613885], [-58.464539, -34.615787], [-58.468635, -34.617561], [-58.478799, -34.62291], [-58.482742, -34.624629], [-58.495572, -34.614391], [-58.500191, -34.609125], [-58.513045, -34.616731], [-58.516948, -34.620215], [-58.525058, -34.613962], [-58.525112, -34.614001], [-58.525612, -34.613662], [-58.529466, -34.610895], [-58.515535, -34.581268], [-58.514969, -34.581317], [-58.514515, -34.581745], [-58.503082, -34.594382], [-58.503542, -34.59445], [-58.498384, -34.596368]]]}}, {"type": "Feature", "properties": {"comuna": 12, "nombre": "Comuna 12", "barrios": "Villa Urquiza, Villa Pueyrredon, Saavedra, Coghlan"}, "geometry": {"type": "Polygon", "coordinates": [[[-58.50331, -34.593856], [-58.503471, -34.593954], [-58.514515, -34.581745], [-58.514969, -34.581317], [-58.515535, -34.581268], [-58.50055, -34.54949], [-58.475953, -34.538632], [-58.470431, -34.546067], [-58.46819, -34.548941], [-58.474436, -34.552422], [-58.470872, -34.557031], [-58.467038, -34.561316], [-58.467684, -34.561688], [-58.466491, -34.562191], [-58.467649, -34.563049], [-58.47065, -34.565005], [-58.473369, -34.566662], [-58.468082, -34.572909], [-58.478655, -34.578929], [-58.488793, -34.584818], [-58.50331, -34.593856]]]}}, {"type": "Feature", "properties": {"comuna": 13, "nombre": "Comuna 13", "barrios": "Belgrano, Nuñez, Colegiales"}, "geometry": {"type": "Polygon", "coordinates": [[[-58.458821, -34.537127], [-58.458559, -34.53732], [-58.456264, -34.536333], [-58.453925, -34.535086], [-58.453719, -34.534874], [-58.453512, -34.534335], [-58.45321, -34.533881], [-58.452325, -34.532745], [-58.451876, -34.531994], [-58.451865, -34.531785], [-58.451739, -34.531695], [-58.451573, -34.531705], [-58.451147, -34.532146], [-58.450917, -34.532545], [-58.450691, -34.533322], [-58.450295, -34.533915], [-58.450008, -34.534896], [-58.45, -34.535146], [-58.450135, -34.535366], [-58.450752, -34.535668], [-58.45114, -34.535702], [-58.451521, -34.535629], [-58.451893, -34.535726], [-58.452025, -34.535657], [-58.453002, -34.535745], [-58.454071, -34.536534], [-58.454835, -34.537441], [-58.454628, -34.538114], [-58.454085, -34.538785], [-58.452788, -34.539424], [-58.452356, -34.539575], [-58.452169, -34.539558], [-58.45191, -34.539198], [-58.451931, -34.538986], [-58.451294, -34.53837], [-58.451194, -34.538143], [-58.450462, -34.537807], [-58.449879, -34.537357], [-58.449879, -34.53688], [-58.450031, -34.536115], [-58.449066, -34.535554], [-58.4489, -34.535572], [-58.448779, -34.535706], [-58.448799, -34.535812], [-58.449327, -34.536149], [-58.449394, -34.536316], [-58.448698, -34.537217], [-58.448693, -34.537346], [-58.448567, -34.537395], [-58.448355, -34.537332], [-58.447969, -34.536986], [-58.447948, -34.53676], [-58.447633, -34.536493], [-58.446383, -34.536004], [-58.445369, -34.536018], [-58.444185, -34.536273], [-58.443645, -34.536309], [-58.443863, -34.536139], [-58.442816, -34.536754], [-58.442287, -34.537296], [-58.442192, -34.537257], [-58.442288, -34.537028], [-58.441764, -34.5379], [-58.441561, -34.537865], [-58.441583, -34.537621], [-58.441326, -34.538571], [-58.44112, -34.538577], [-58.441077, -34.538335], [-58.441098, -34.539137], [-58.440836, -34.539145], [-58.440887, -34.540203], [-58.440783, -34.540299], [-58.440601, -34.540242], [-58.440424, -34.540297], [-58.44032, -34.540204], [-58.440318, -34.539265], [-58.440256, -34.539203], [-58.440176, -34.539255], [-58.440213, -34.539833], [-58.439236, -34.540131], [-58.438198, -34.539944], [-58.437401, -34.539995], [-58.437638, -34.539846], [-58.437559, -34.539797], [-58.437349, -34.540003], [-58.436391, -34.540279], [-58.435887, -34.540607], [-58.435257, -34.541251], [-58.434943, -34.541904], [-58.434202, -34.54186], [-58.434205, -34.54202], [-58.43492, -34.541996], [-58.434737, -34.542438], [-58.434606, -34.54263], [-58.434183, -34.542918], [-58.433253, -34.543323], [-58.432142, -34.543987], [-58.431338, -34.54478], [-58.431053, -34.545241], [-58.43078, -34.545938], [-58.430684, -34.546625], [-58.430728, -34.547327], [-58.430597, -34.547343], [-58.430113, -34.547009], [-58.430122, -34.546921], [-58.429864, -34.547317], [-58.429917, -34.547675], [-58.430229, -34.547978], [-58.430199, -34.547889], [-58.430594, -34.547508], [-58.430753, -34.547503], [-58.430771, -34.547742], [-58.430459, -34.54785], [-58.430164, -34.548098], [-58.429473, -34.548875], [-58.429059, -34.549086], [-58.428744, -34.549137], [-58.427528, -34.548231], [-58.427056, -34.548518], [-58.426779, -34.548164], [-58.425586, -34.548834], [-58.425274, -34.548966], [-58.425125, -34.548944], [-58.426694, -34.552048], [-58.4294, -34.550951], [-58.429761, -34.550937], [-58.430986, -34.551119], [-58.431682, -34.551415], [-58.434425, -34.553051], [-58.434632, -34.553311], [-58.434655, -34.553594], [-58.434113, -34.553958], [-58.435984, -34.55486], [-58.437701, -34.556148], [-58.438813, -34.556505], [-58.440161, -34.557105], [-58.44106, -34.557897], [-58.441387, -34.558816], [-58.44096, -34.559914], [-58.440329, -34.560556], [-58.439242, -34.561286], [-58.437982, -34.561757], [-58.436552, -34.561929], [-58.43496, -34.561793], [-58.43486, -34.56209], [-58.435404, -34.562537], [-58.436429, -34.562578], [-58.438435, -34.562476], [-58.441164, -34.562134], [-58.442537, -34.563689], [-58.442623, -34.563627], [-58.447856, -34.566713], [-58.449046, -34.567854], [-58.443641, -34.570564], [-58.440746, -34.572106], [-58.443973, -34.575364], [-58.441816, -34.576818], [-58.44089, -34.577796], [-58.43994, -34.578547], [-58.443433, -34.581797], [-58.44445, -34.583171], [-58.448281, -34.581524], [-58.451019, -34.580476], [-58.4554, -34.579071], [-58.457744, -34.578438], [-58.460225, -34.578295], [-58.463188, -34.575105], [-58.467365, -34.572496], [-58.468082, -34.572909], [-58.473369, -34.566662], [-58.47065, -34.565005], [-58.467649, -34.563049], [-58.466491, -34.562191], [-58.467684, -34.561688], [-58.467038, -34.561316], [-58.470872, -34.557031], [-58.474436, -34.552422], [-58.46819, -34.548941], [-58.470431, -34.546067], [-58.475953, -34.538632], [-58.463796, -34.533262], [-58.461072, -34.530132], [-58.460496, -34.52908], [-58.459505, -34.527832], [-58.459474, -34.52745], [-58.459253, -34.527146], [-58.458445, -34.526628], [-58.457524, -34.5265], [-58.456718, -34.526743], [-58.455582, -34.527426], [-58.454215, -34.529006], [-58.453426, -34.529207], [-58.452561, -34.529622], [-58.451714, -34.530094], [-58.451541, -34.530423], [-58.454519, -34.534746], [-58.454965, -34.535271], [-58.458821, -34.537127]]]}}, {"type": "Feature", "properties": {"comuna": 14, "nombre": "Comuna 14", "barrios": "Palermo"}, "geometry": {"type": "Polygon", "coordinates": [[[-58.425201, -34.551198], [-58.425703, -34.552158], [-58.422886, -34.553019], [-58.422832, -34.55287], [-58.422317, -34.552983], [-58.422378, -34.553131], [-58.417386, -34.554385], [-58.415682, -34.554901], [-58.414254, -34.555475], [-58.412357, -34.556532], [-58.411142, -34.557353], [-58.411026, -34.557249], [-58.410744, -34.557301], [-58.410083, -34.556651], [-58.409771, -34.556562], [-58.409521, -34.556623], [-58.409389, -34.55685], [-58.409481, -34.557099], [-58.409435, -34.557134], [-58.410189, -34.557731], [-58.410078, -34.557967], [-58.410199, -34.558068], [-58.406664, -34.560956], [-58.404823, -34.562661], [-58.404746, -34.56293], [-58.404431, -34.562822], [-58.40391, -34.563479], [-58.403668, -34.563348], [-58.403736, -34.563258], [-58.403399, -34.563073], [-58.403327, -34.563164], [-58.398789, -34.560747], [-58.398694, -34.560914], [-58.398832, -34.560986], [-58.398879, -34.560927], [-58.403288, -34.563212], [-58.403222, -34.563301], [-58.403563, -34.563487], [-58.403635, -34.563397], [-58.403935, -34.563561], [-58.40338, -34.563875], [-58.402604, -34.563956], [-58.402162, -34.563865], [-58.401597, -34.563476], [-58.401116, -34.563332], [-58.400942, -34.563413], [-58.400875, -34.563552], [-58.400957, -34.563721], [-58.400895, -34.563763], [-58.401105, -34.564036], [-58.400893, -34.564247], [-58.400712, -34.5643], [-58.400333, -34.563989], [-58.399812, -34.563714], [-58.399516, -34.563613], [-58.39921, -34.56366], [-58.398502, -34.563977], [-58.397875, -34.564533], [-58.397378, -34.564868], [-58.397039, -34.565001], [-58.396839, -34.565201], [-58.396751, -34.565441], [-58.396878, -34.565829], [-58.397049, -34.566002], [-58.397502, -34.566235], [-58.397688, -34.566542], [-58.398876, -34.567577], [-58.40019, -34.569012], [-58.399925, -34.569181], [-58.397508, -34.566696], [-58.397293, -34.566592], [-58.396982, -34.566669], [-58.396512, -34.566894], [-58.395834, -34.567755], [-58.395785, -34.567733], [-58.395247, -34.568618], [-58.395211, -34.568957], [-58.394919, -34.569252], [-58.394735, -34.569153], [-58.394565, -34.569229], [-58.392843, -34.572233], [-58.394824, -34.572309], [-58.395209, -34.572191], [-58.399341, -34.569871], [-58.40013, -34.569349], [-58.399701, -34.570018], [-58.399633, -34.570403], [-58.399719, -34.570807], [-58.402031, -34.573517], [-58.40265, -34.57414], [-58.401655, -34.575317], [-58.401148, -34.575737], [-58.399944, -34.57649], [-58.398585, -34.577172], [-58.396563, -34.578507], [-58.398113, -34.580702], [-58.399365, -34.582715], [-58.399278, -34.58273], [-58.400547, -34.584472], [-58.40113, -34.583942], [-58.401946, -34.583426], [-58.406175, -34.583459], [-58.410084, -34.589057], [-58.414396, -34.594054], [-58.416003, -34.597854], [-58.423369, -34.597747], [-58.426952, -34.59621], [-58.430284, -34.594163], [-58.444787, -34.584513], [-58.444401, -34.583192], [-58.44445, -34.583171], [-58.443433, -34.581797], [-58.43994, -34.578547], [-58.44089, -34.577796], [-58.441816, -34.576818], [-58.443973, -34.575364], [-58.440746, -34.572106], [-58.443641, -34.570564], [-58.449046, -34.567854], [-58.447856, -34.566713], [-58.442623, -34.563627], [-58.442537, -34.563689], [-58.441164, -34.562134], [-58.438435, -34.562476], [-58.436429, -34.562578], [-58.435404, -34.562537], [-58.43486, -34.56209], [-58.43496, -34.561793], [-58.436118, -34.561923], [-58.437279, -34.561875], [-58.43825, -34.561684], [-58.439242, -34.561286], [-58.440168, -34.560685], [-58.440847, -34.56006], [-58.44113, -34.559546], [-58.441387, -34.558816], [-58.44106, -34.557897], [-58.440161, -34.557105], [-58.438813, -34.556505], [-58.437701, -34.556148], [-58.435984, -34.55486], [-58.434113, -34.553958], [-58.434655, -34.553594], [-58.434632, -34.553311], [-58.434425, -34.553051], [-58.431682, -34.551415], [-58.430665, -34.551039], [-58.429761, -34.550937], [-58.429146, -34.551011], [-58.426694, -34.552048], [-58.426574, -34.551819], [-58.425738, -34.552143], [-58.424269, -34.549269], [-58.424199, -34.549259], [-58.425201, -34.551198]]]}}, {"type": "Feature", "properties": {"comuna": 15, "nombre": "Comuna 15", "barrios": "Agronomia, Paternal, Parque Chas, Chacarita, Villa Crespo, Villa Ortuzar"}, "geometry": {"type": "Polygon", "coordinates": [[[-58.426026, -34.596614], [-58.424845, -34.597061], [-58.423369, -34.597747], [-58.423755, -34.597827], [-58.426787, -34.597944], [-58.427775, -34.598328], [-58.429431, -34.599126], [-58.430277, -34.599882], [-58.432242, -34.602133], [-58.439203, -34.605582], [-58.445133, -34.607175], [-58.446248, -34.607615], [-58.468912, -34.60186], [-58.47161, -34.603821], [-58.474017, -34.605311], [-58.476381, -34.602365], [-58.477499, -34.600825], [-58.476392, -34.600199], [-58.478831, -34.599671], [-58.482843, -34.597943], [-58.483456, -34.597758], [-58.497174, -34.596817], [-58.503542, -34.59445], [-58.503082, -34.594382], [-58.503471, -34.593954], [-58.488793, -34.584818], [-58.478655, -34.578929], [-58.467365, -34.572496], [-58.463188, -34.575105], [-58.460225, -34.578295], [-58.457744, -34.578438], [-58.4554, -34.579071], [-58.451019, -34.580476], [-58.448281, -34.581524], [-58.444401, -34.583192], [-58.444787, -34.584513], [-58.444587, -34.584666], [-58.430284, -34.594163], [-58.426952, -34.59621], [-58.426026, -34.596614]]]}}]}